COSMOS 2251 DEB         
1 40808U 93036BWM 17344.62323288  .00000560  00000-0  17686-3 0  9996
2 40808  74.0520 213.1676 0020705 265.6427 123.7191 14.42394211212989
